{"type": "FeatureCollection", "features": [ {"type": "Feature", "properties": {"norad_id": 31152, "name": "FENGYUN 1C DEB", "group": "fengyun-1c-debris", "lat": -81.26597690765844, "lon": 74.82050087279654, "alt_km": 848.3829906582469, "timestamp": "2025-12-08T13:49:32.073392+00:00", "meta": {"OBJECT_NAME": "FENGYUN 1C DEB", "OBJECT_ID": "1999-025BHE", "EPOCH": "2025-12-08T05:57:40.813056", "MEAN_MOTION": 14.35843612, "ECCENTRICITY": 0.01303699, "INCLINATION": 98.4138, "RA_OF_ASC_NODE": 328.9548, "ARG_OF_PERICENTER": 46.6753, "MEAN_ANOMALY": 329.1977, "EPHEMERIS_TYPE": 0, "CLASSIFICATION_TYPE": "U", "NORAD_CAT_ID": 31152, "ELEMENT_SET_NO": 999, "REV_AT_EPOCH": 97984, "BSTAR": 0.00021301221, "MEAN_MOTION_DOT": 6.34e-06, "MEAN_MOTION_DDOT": 0}, "tle": {"line1": "1 31152U 99025BHE 25342.24838904  .00000634  00000+0  21301-3 0  9993", "line2": "2 31152  98.4138 328.9548 0130369  46.6753 329.1977 14.35843612979841"}}, "geometry": {"type": "Point", "coordinates": [74.82050087279654, -81.26597690765844]}}, {"type": "Feature", "properties": {"norad_id": 31155, "name": "FENGYUN 1C DEB", "group": "fengyun-1c-debris", "lat": -48.22801714118406, "lon": -138.77535341906855, "alt_km": 925.188433209215, "timestamp": "2025-12-08T13:49:32.073402+00:00", "meta": {"OBJECT_NAME": "FENGYUN 1C DEB", "OBJECT_ID": "1999-025BHH", "EPOCH": "2025-12-05T21:39:03.400416", "MEAN_MOTION": 14.08284808, "ECCENTRICITY": 0.00890747, "INCLINATION": 99.0425, "RA_OF_ASC_NODE": 48.8151, "ARG_OF_PERICENTER": 22.3069, "MEAN_ANOMALY": 338.1937, "EPHEMERIS_TYPE": 0, "CLASSIFICATION_TYPE": "U", "NORAD_CAT_ID": 31155, "ELEMENT_SET_NO": 999, "REV_AT_EPOCH": 95491, "BSTAR": 0.0020315981, "MEAN_MOTION_DOT": 3.558e-05, "MEAN_MOTION_DDOT": 0}, "tle": {"line1": "1 31155U 99025BHH 25339.90212269  .00003558  00000+0  20316-2 0  9997", "line2": "2 31155  99.0425  48.8151 0089074  22.3069 338.1937 14.08284808954918"}}, "geometry": {"type": "Point", "coordinates": [-138.77535341906855, -48.22801714118406]}}, {"type": "Feature", "properties": {"norad_id": 31157, "name": "FENGYUN 1C DEB", "group": "fengyun-1c-debris", "lat": -43.16224299806181, "lon": -25.71364592892608, "alt_km": 756.4245814534643, "timestamp": "2025-12-08T13:49:32.073412+00:00", "meta": {"OBJECT_NAME": "FENGYUN 1C DEB", "OBJECT_ID": "1999-025BHK", "EPOCH": "2025-12-07T04:15:57.074688", "MEAN_MOTION": 14.22549105, "ECCENTRICITY": 0.0100449, "INCLINATION": 98.4774, "RA_OF_ASC_NODE": 324.9006, "ARG_OF_PERICENTER": 342.8267, "MEAN_ANOMALY": 16.9521, "EPHEMERIS_TYPE": 0, "CLASSIFICATION_TYPE": "U", "NORAD_CAT_ID": 31157, "ELEMENT_SET_NO": 999, "REV_AT_EPOCH": 96904, "BSTAR": 0.00056222965, "MEAN_MOTION_DOT": 1.279e-05, "MEAN_MOTION_DDOT": 0}, "tle": {"line1": "1 31157U 99025BHK 25341.17774392  .00001279  00000+0  56223-3 0  9996", "line2": "2 31157  98.4774 324.9006 0100449 342.8267  16.9521 14.22549105969047"}}, "geometry": {"type": "Point", "coordinates": [-25.71364592892608, -43.16224299806181]}}, {"type": "Feature", "properties": {"norad_id": 31158, "name": "FENGYUN 1C DEB", "group": "fengyun-1c-debris", "lat": -32.947991278358856, "lon": 66.92434153721516, "alt_km": 781.8138051088135, "timestamp": "2025-12-08T13:49:32.073422+00:00", "meta": {"OBJECT_NAME": "FENGYUN 1C DEB", "OBJECT_ID": "1999-025BHL", "EPOCH": "2025-12-01T22:47:41.317728", "MEAN_MOTION": 14.33065926, "ECCENTRICITY": 0.00482848, "INCLINATION": 98.7835, "RA_OF_ASC_NODE": 54.4553, "ARG_OF_PERICENTER": 67.2099, "MEAN_ANOMALY": 293.4175, "EPHEMERIS_TYPE": 0, "CLASSIFICATION_TYPE": "U", "NORAD_CAT_ID": 31158, "ELEMENT_SET_NO": 999, "REV_AT_EPOCH": 64325, "BSTAR": 0.0019469313, "MEAN_MOTION_DOT": 5.364e-05, "MEAN_MOTION_DDOT": 0}, "tle": {"line1": "1 31158U 99025BHL 25335.94978377  .00005364  00000+0  19469-2 0  9993", "line2": "2 31158  98.7835  54.4553 0048284  67.2099 293.4175 14.33065926643255"}}, "geometry": {"type": "Point", "coordinates": [66.92434153721516, -32.947991278358856]}}, {"type": "Feature", "properties": {"norad_id": 31159, "name": "FENGYUN 1C DEB", "group": "fengyun-1c-debris", "lat": -17.555099840633613, "lon": -55.588442282205556, "alt_km": 403.28410252667163, "timestamp": "2025-12-08T13:49:32.073433+00:00", "meta": {"OBJECT_NAME": "FENGYUN 1C DEB", "OBJECT_ID": "1999-025BHM", "EPOCH": "2025-12-07T03:32:01.799520", "MEAN_MOTION": 15.37177071, "ECCENTRICITY": 0.01157472, "INCLINATION": 97.7995, "RA_OF_ASC_NODE": 300.4097, "ARG_OF_PERICENTER": 33.2484, "MEAN_ANOMALY": 327.5962, "EPHEMERIS_TYPE": 0, "CLASSIFICATION_TYPE": "U", "NORAD_CAT_ID": 31159, "ELEMENT_SET_NO": 999, "REV_AT_EPOCH": 99467, "BSTAR": 0.0020820653, "MEAN_MOTION_DOT": 0.00096035, "MEAN_MOTION_DDOT": 0}, "tle": {"line1": "1 31159U 99025BHM 25341.14724305  .00096035  00000+0  20821-2 0  9992", "line2": "2 31159  97.7995 300.4097 0115747  33.2484 327.5962 15.37177071994677"}}, "geometry": {"type": "Point", "coordinates": [-55.588442282205556, -17.555099840633613]}}, {"type": "Feature", "properties": {"norad_id": 31160, "name": "FENGYUN 1C DEB", "group": "fengyun-1c-debris", "lat": -33.24451015017283, "lon": -147.133716010787, "alt_km": 877.0219095127959, "timestamp": "2025-12-08T13:49:32.073443+00:00", "meta": {"OBJECT_NAME": "FENGYUN 1C DEB", "OBJECT_ID": "1999-025BHN", "EPOCH": "2025-12-07T14:29:52.924992", "MEAN_MOTION": 13.99590839, "ECCENTRICITY": 0.00565549, "INCLINATION": 99.087, "RA_OF_ASC_NODE": 37.9235, "ARG_OF_PERICENTER": 270.4305, "MEAN_ANOMALY": 89.0379, "EPHEMERIS_TYPE": 0, "CLASSIFICATION_TYPE": "U", "NORAD_CAT_ID": 31160, "ELEMENT_SET_NO": 999, "REV_AT_EPOCH": 69527, "BSTAR": 0.00022797743, "MEAN_MOTION_DOT": 2.93e-06, "MEAN_MOTION_DDOT": 0}, "tle": {"line1": "1 31160U 99025BHN 25341.60408478  .00000293  00000+0  22798-3 0  9992", "line2": "2 31160  99.0870  37.9235 0056554 270.4305  89.0379 13.99590839695272"}}, "geometry": {"type": "Point", "coordinates": [-147.133716010787, -33.24451015017283]}}, {"type": "Feature", "properties": {"norad_id": 31161, "name": "FENGYUN 1C DEB", "group": "fengyun-1c-debris", "lat": 63.48887434450516, "lon": -157.7385127415274, "alt_km": 874.912438434957, "timestamp": "2025-12-08T13:49:32.073453+00:00", "meta": {"OBJECT_NAME": "FENGYUN 1C DEB", "OBJECT_ID": "1999-025BHP", "EPOCH": "2025-12-06T20:23:22.110144", "MEAN_MOTION": 14.09240264, "ECCENTRICITY": 0.0068586, "INCLINATION": 98.7491, "RA_OF_ASC_NODE": 2.6028, "ARG_OF_PERICENTER": 6.8769, "MEAN_ANOMALY": 353.3326, "EPHEMERIS_TYPE": 0, "CLASSIFICATION_TYPE": "U", "NORAD_CAT_ID": 31161, "ELEMENT_SET_NO": 999, "REV_AT_EPOCH": 96019, "BSTAR": 0.00060286597, "MEAN_MOTION_DOT": 1.029e-05, "MEAN_MOTION_DDOT": 0}, "tle": {"line1": "1 31161U 99025BHP 25340.84956146  .00001029  00000+0  60287-3 0  9991", "line2": "2 31161  98.7491   2.6028 0068586   6.8769 353.3326 14.09240264960191"}}, "geometry": {"type": "Point", "coordinates": [-157.7385127415274, 63.48887434450516]}}, {"type": "Feature", "properties": {"norad_id": 31165, "name": "FENGYUN 1C DEB", "group": "fengyun-1c-debris", "lat": -34.20307047726606, "lon": -144.11212243605777, "alt_km": 623.426740481982, "timestamp": "2025-12-08T13:49:32.073464+00:00", "meta": {"OBJECT_NAME": "FENGYUN 1C DEB", "OBJECT_ID": "1999-025BHT", "EPOCH": "2025-12-08T03:11:53.467008", "MEAN_MOTION": 14.70941214, "ECCENTRICITY": 0.00692189, "INCLINATION": 98.8854, "RA_OF_ASC_NODE": 41.509, "ARG_OF_PERICENTER": 249.2629, "MEAN_ANOMALY": 142.2739, "EPHEMERIS_TYPE": 0, "CLASSIFICATION_TYPE": "U", "NORAD_CAT_ID": 31165, "ELEMENT_SET_NO": 999, "REV_AT_EPOCH": 98687, "BSTAR": 0.0016610775, "MEAN_MOTION_DOT": 0.00010514, "MEAN_MOTION_DDOT": 0}, "tle": {"line1": "1 31165U 99025BHT 25342.13325772  .00010514  00000+0  16611-2 0  9994", "line2": "2 31165  98.8854  41.5090 0069218 249.2629 142.2739 14.70941214986878"}}, "geometry": {"type": "Point", "coordinates": [-144.11212243605777, -34.20307047726606]}}, {"type": "Feature", "properties": {"norad_id": 31168, "name": "FENGYUN 1C DEB", "group": "fengyun-1c-debris", "lat": 2.943926128131237, "lon": -66.06771980624572, "alt_km": 685.4130841626129, "timestamp": "2025-12-08T13:49:32.073473+00:00", "meta": {"OBJECT_NAME": "FENGYUN 1C DEB", "OBJECT_ID": "1999-025BHW", "EPOCH": "2025-12-07T14:07:13.067616", "MEAN_MOTION": 14.67283945, "ECCENTRICITY": 0.01088741, "INCLINATION": 98.8911, "RA_OF_ASC_NODE": 112.4, "ARG_OF_PERICENTER": 79.4903, "MEAN_ANOMALY": 281.8544, "EPHEMERIS_TYPE": 0, "CLASSIFICATION_TYPE": "U", "NORAD_CAT_ID": 31168, "ELEMENT_SET_NO": 999, "REV_AT_EPOCH": 99045, "BSTAR": 0.0012286131, "MEAN_MOTION_DOT": 7.519e-05, "MEAN_MOTION_DDOT": 0}, "tle": {"line1": "1 31168U 99025BHW 25341.58834569  .00007519  00000+0  12286-2 0  9999", "line2": "2 31168  98.8911 112.4000 0108874  79.4903 281.8544 14.67283945990453"}}, "geometry": {"type": "Point", "coordinates": [-66.06771980624572, 2.943926128131237]}}, {"type": "Feature", "properties": {"norad_id": 31169, "name": "FENGYUN 1C DEB", "group": "fengyun-1c-debris", "lat": -71.99858071803195, "lon": 38.5797282611083, "alt_km": 820.8343411332125, "timestamp": "2025-12-08T13:49:32.073484+00:00", "meta": {"OBJECT_NAME": "FENGYUN 1C DEB", "OBJECT_ID": "1999-025BHX", "EPOCH": "2025-12-07T14:36:12.590784", "MEAN_MOTION": 14.26378053, "ECCENTRICITY": 0.00576294, "INCLINATION": 99.1571, "RA_OF_ASC_NODE": 7.8072, "ARG_OF_PERICENTER": 32.3449, "MEAN_ANOMALY": 328.1242, "EPHEMERIS_TYPE": 0, "CLASSIFICATION_TYPE": "U", "NORAD_CAT_ID": 31169, "ELEMENT_SET_NO": 999, "REV_AT_EPOCH": 57031, "BSTAR": 0.0034039126, "MEAN_MOTION_DOT": 8.288e-05, "MEAN_MOTION_DDOT": 0}, "tle": {"line1": "1 31169U 99025BHX 25341.60847906  .00008288  00000+0  34039-2 0  9996", "line2": "2 31169  99.1571   7.8072 0057629  32.3449 328.1242 14.26378053570319"}}, "geometry": {"type": "Point", "coordinates": [38.5797282611083, -71.99858071803195]}}]}